{
  "norad_id": 66103,
  "name": "STARLINK-35622",
  "history": [
    {
      "epoch": "2026-04-14T19:28:35.531040Z",
      "apogee_km": 477.1859133042617,
      "perigee_km": 473.2123490154145,
      "latitude_deg": -2.6539707975350302e-05,
      "longitude_deg": 161.052848863846,
      "height_km": 476.29113631767456,
      "semi_major_axis_km": 6853.336131159837,
      "eccentricity": 0.0002899,
      "inclination_deg": 53.1584,
      "raan_deg": 296.1835,
      "arg_perigee_deg": 95.6758,
      "mean_anomaly_deg": 264.4573,
      "mean_motion_rev_day": 15.30205338
    },
    {
      "epoch": "2026-04-15T18:59:23.340768Z",
      "apogee_km": 475.78964773699863,
      "perigee_km": 474.63417311070134,
      "latitude_deg": 2.6507154388996378e-05,
      "longitude_deg": 162.837826938969,
      "height_km": 476.0049117741657,
      "semi_major_axis_km": 6853.34891042385,
      "eccentricity": 8.43e-05,
      "inclination_deg": 53.1606,
      "raan_deg": 291.6333,
      "arg_perigee_deg": 79.4552,
      "mean_anomaly_deg": 280.6544,
      "mean_motion_rev_day": 15.30201058
    },
    {
      "epoch": "2026-04-16T18:30:11.390688Z",
      "apogee_km": 476.0581586856333,
      "perigee_km": 474.3598995396205,
      "latitude_deg": 2.455250800839379e-05,
      "longitude_deg": 164.61916050251287,
      "height_km": 476.1136133048484,
      "semi_major_axis_km": 6853.346029112627,
      "eccentricity": 0.0001239,
      "inclination_deg": 53.1598,
      "raan_deg": 287.0805,
      "arg_perigee_deg": 90.438,
      "mean_anomaly_deg": 269.6763,
      "mean_motion_rev_day": 15.30202023
    },
    {
      "epoch": "2026-04-17T21:09:05.643648Z",
      "apogee_km": 475.9869940278322,
      "perigee_km": 474.45307565629355,
      "latitude_deg": 4.021600532199592e-05,
      "longitude_deg": 118.64190857752304,
      "height_km": 476.34097095155374,
      "semi_major_axis_km": 6853.357034842063,
      "eccentricity": 0.00011191,
      "inclination_deg": 53.1602,
      "raan_deg": 281.9237,
      "arg_perigee_deg": 106.8706,
      "mean_anomaly_deg": 253.2418,
      "mean_motion_rev_day": 15.30198337
    },
    {
      "epoch": "2026-04-18T20:39:53.336736Z",
      "apogee_km": 475.88844775542566,
      "perigee_km": 474.4588471543666,
      "latitude_deg": 1.8998827946357178e-05,
      "longitude_deg": 120.42761691465373,
      "height_km": 476.13723779729787,
      "semi_major_axis_km": 6853.310647454896,
      "eccentricity": 0.0001043,
      "inclination_deg": 53.16,
      "raan_deg": 277.3738,
      "arg_perigee_deg": 95.2335,
      "mean_anomaly_deg": 264.8785,
      "mean_motion_rev_day": 15.30213873
    },
    {
      "epoch": "2026-04-19T20:10:41.562048Z",
      "apogee_km": 475.92496076892985,
      "perigee_km": 474.46657155629055,
      "latitude_deg": -8.694887223919519e-06,
      "longitude_deg": 122.20979556607645,
      "height_km": 476.40497219732987,
      "semi_major_axis_km": 6853.33276616261,
      "eccentricity": 0.0001064,
      "inclination_deg": 53.1601,
      "raan_deg": 272.8226,
      "arg_perigee_deg": 115.2201,
      "mean_anomaly_deg": 244.891,
      "mean_motion_rev_day": 15.30206465
    },
    {
      "epoch": "2026-04-20T10:17:10.082688Z",
      "apogee_km": 475.98763430295367,
      "perigee_km": 474.38573842450205,
      "latitude_deg": 2.173449432385449e-05,
      "longitude_deg": -92.71851069705498,
      "height_km": 476.3580629001626,
      "semi_major_axis_km": 6853.323686363728,
      "eccentricity": 0.00011687,
      "inclination_deg": 53.1618,
      "raan_deg": 270.0925,
      "arg_perigee_deg": 109.9193,
      "mean_anomaly_deg": 250.1934,
      "mean_motion_rev_day": 15.30209506
    },
    {
      "epoch": "2026-04-21T16:04:09.547680Z",
      "apogee_km": 475.77693315351644,
      "perigee_km": 474.29801810167646,
      "latitude_deg": -3.109372648693563e-05,
      "longitude_deg": 173.54562419446162,
      "height_km": 475.9297803482153,
      "semi_major_axis_km": 6853.174475627597,
      "eccentricity": 0.0001079,
      "inclination_deg": 53.1601,
      "raan_deg": 264.3276,
      "arg_perigee_deg": 89.5298,
      "mean_anomaly_deg": 270.5826,
      "mean_motion_rev_day": 15.30259481
    },
    {
      "epoch": "2026-04-22T17:09:01.821888Z",
      "apogee_km": 475.9669649764346,
      "perigee_km": 474.5428301401207,
      "latitude_deg": 1.9950571932296004e-05,
      "longitude_deg": 151.4465026631793,
      "height_km": 476.1605674400378,
      "semi_major_axis_km": 6853.391897558277,
      "eccentricity": 0.0001039,
      "inclination_deg": 53.1586,
      "raan_deg": 259.4763,
      "arg_perigee_deg": 90.5987,
      "mean_anomaly_deg": 269.5133,
      "mean_motion_rev_day": 15.30186661
    },
    {
      "epoch": "2026-04-23T08:49:33.521376Z",
      "apogee_km": 476.13109215341774,
      "perigee_km": 474.1681737960007,
      "latitude_deg": 3.8938477710232956e-05,
      "longitude_deg": -87.36403449910183,
      "height_km": 475.98938706131764,
      "semi_major_axis_km": 6853.2866329747085,
      "eccentricity": 0.00014321,
      "inclination_deg": 53.1586,
      "raan_deg": 256.4416,
      "arg_perigee_deg": 86.6148,
      "mean_anomaly_deg": 273.5017,
      "mean_motion_rev_day": 15.30221916
    },
    {
      "epoch": "2026-04-24T14:36:34.787808Z",
      "apogee_km": 475.8851605813088,
      "perigee_km": 474.51175215585226,
      "latitude_deg": 9.233683406214572e-06,
      "longitude_deg": 178.8925924125665,
      "height_km": 475.6509386875559,
      "semi_major_axis_km": 6853.33545636858,
      "eccentricity": 0.0001002,
      "inclination_deg": 53.1558,
      "raan_deg": 250.6767,
      "arg_perigee_deg": 49.5164,
      "mean_anomaly_deg": 310.5924,
      "mean_motion_rev_day": 15.30205564
    },
    {
      "epoch": "2026-04-25T15:41:25.687392Z",
      "apogee_km": 475.85094550065514,
      "perigee_km": 474.58033392125435,
      "latitude_deg": -5.4999759040037644e-05,
      "longitude_deg": 156.7956304806148,
      "height_km": 475.79730323737897,
      "semi_major_axis_km": 6853.3526397109545,
      "eccentricity": 9.27e-05,
      "inclination_deg": 53.1567,
      "raan_deg": 245.8219,
      "arg_perigee_deg": 60.0997,
      "mean_anomaly_deg": 300.0095,
      "mean_motion_rev_day": 15.30199809
    },
    {
      "epoch": "2026-04-26T18:20:20.293728Z",
      "apogee_km": 476.04466873281217,
      "perigee_km": 474.3561434626963,
      "latitude_deg": -1.313121435546328e-06,
      "longitude_deg": 110.81822940966462,
      "height_km": 476.0072703275112,
      "semi_major_axis_km": 6853.337406097754,
      "eccentricity": 0.00012319,
      "inclination_deg": 53.1582,
      "raan_deg": 240.6664,
      "arg_perigee_deg": 83.8066,
      "mean_anomaly_deg": 276.3075,
      "mean_motion_rev_day": 15.30204911
    },
    {
      "epoch": "2026-04-27T14:43:01.928064Z",
      "apogee_km": 475.7469014437156,
      "perigee_km": 474.74219570869445,
      "latitude_deg": 2.723233865709779e-05,
      "longitude_deg": 160.36247067300266,
      "height_km": 475.9901973736463,
      "semi_major_axis_km": 6853.381548576205,
      "eccentricity": 7.33e-05,
      "inclination_deg": 53.1586,
      "raan_deg": 236.721,
      "arg_perigee_deg": 72.264,
      "mean_anomaly_deg": 287.8441,
      "mean_motion_rev_day": 15.30190127
    },
    {
      "epoch": "2026-04-28T14:13:50.067840Z",
      "apogee_km": 476.1609532337925,
      "perigee_km": 474.3365819424607,
      "latitude_deg": 3.393684457181033e-05,
      "longitude_deg": 162.1465341243606,
      "height_km": 476.0142914276234,
      "semi_major_axis_km": 6853.385767588126,
      "eccentricity": 0.0001331,
      "inclination_deg": 53.1594,
      "raan_deg": 232.1713,
      "arg_perigee_deg": 81.6533,
      "mean_anomaly_deg": 278.4619,
      "mean_motion_rev_day": 15.30188714
    },
    {
      "epoch": "2026-04-29T13:44:37.932000Z",
      "apogee_km": 476.0645147522173,
      "perigee_km": 474.37584754278214,
      "latitude_deg": 1.69474863969566e-05,
      "longitude_deg": 163.93033116319847,
      "height_km": 476.0863785820014,
      "semi_major_axis_km": 6853.357181147499,
      "eccentricity": 0.0001232,
      "inclination_deg": 53.1602,
      "raan_deg": 227.6202,
      "arg_perigee_deg": 87.8314,
      "mean_anomaly_deg": 272.2828,
      "mean_motion_rev_day": 15.30198288
    }
  ]
}